[{"OBJECT_NAME":"STARLINK-5358","OBJECT_ID":"2023-090AU","EPOCH":"2026-03-09T22:00:01.999584","MEAN_MOTION":15.08668791,"ECCENTRICITY":0.00016126,"INCLINATION":43.0007,"RA_OF_ASC_NODE":260.3086,"ARG_OF_PERICENTER":272.471,"MEAN_ANOMALY":265.5571,"EPHEMERIS_TYPE":0,"CLASSIFICATION_TYPE":"U","NORAD_CAT_ID":57143,"ELEMENT_SET_NO":999,"REV_AT_EPOCH":577,"BSTAR":0.040938166,"MEAN_MOTION_DOT":0.00700841,"MEAN_MOTION_DDOT":0},{"OBJECT_NAME":"THORAD AGENA D DEB","OBJECT_ID":"1969-082Z","EPOCH":"2026-03-09T07:18:45.871776","MEAN_MOTION":15.11837328,"ECCENTRICITY":0.00204275,"INCLINATION":70.0067,"RA_OF_ASC_NODE":36.7332,"ARG_OF_PERICENTER":221.6463,"MEAN_ANOMALY":138.3149,"EPHEMERIS_TYPE":0,"CLASSIFICATION_TYPE":"U","NORAD_CAT_ID":4157,"ELEMENT_SET_NO":999,"REV_AT_EPOCH":97934,"BSTAR":0.0014373482,"MEAN_MOTION_DOT":0.00024719,"MEAN_MOTION_DDOT":0}]
